start=new Date('2022-03-03T00:00:00.000Z').valueOf();
sats=[{"TLE_LINE1":"1 49739U 21115R   22061.91667824 -.00029529  00000-0 -18438-2 0  9991","PERIAPSIS":"537.673","ECCENTRICITY":"0.00029190","OBJECT_TYPE":"PAYLOAD","EPHEMERIS_TYPE":"0","FILE":"3341695","MEAN_MOTION_DDOT":"0.0000000000000","PERIOD":"95.436","NORAD_CAT_ID":"49739","ARG_OF_PERICENTER":"51.9170","TIME_SYSTEM":"UTC","SITE":"AFETR","RA_OF_ASC_NODE":"268.2581","ELEMENT_SET_NO":"999","MEAN_ELEMENT_THEORY":"SGP4","GP_ID":"197660851","CLASSIFICATION_TYPE":"U","INCLINATION":"53.2054","EPOCH":"2022-03-02T22:00:00.999936","CENTER_NAME":"EARTH","COUNTRY_CODE":"US","DECAY_DATE":null,"RCS_SIZE":"LARGE","MEAN_ANOMALY":"333.8047","BSTAR":"-0.00184380000000","SEMIMAJOR_AXIS":"6917.828","MEAN_MOTION":"15.08857285","REV_AT_EPOCH":"360","MEAN_MOTION_DOT":"-0.00029529","OBJECT_ID":"2021-115R","APOAPSIS":"541.712","OBJECT_NAME":"STARLINK-3155","REF_FRAME":"TEME","LAUNCH_DATE":"2021-12-02","TLE_LINE2":"2 49739  53.2054 268.2581 0002919  51.9170 333.8047 15.08857285  3605"},{"RA_OF_ASC_NODE":"258.2158","ELEMENT_SET_NO":"999","MEAN_ELEMENT_THEORY":"SGP4","GP_ID":"197660602","CLASSIFICATION_TYPE":"U","ARG_OF_PERICENTER":"49.2538","TIME_SYSTEM":"UTC","SITE":"AFETR","EPHEMERIS_TYPE":"0","FILE":"3341695","MEAN_MOTION_DDOT":"0.0000000000000","PERIOD":"95.439","NORAD_CAT_ID":"49740","TLE_LINE1":"1 49740U 21115S   22061.91667824  .00028244  00000-0  17865-2 0  9997","ECCENTRICITY":"0.00022830","PERIAPSIS":"538.226","OBJECT_TYPE":"PAYLOAD","APOAPSIS":"541.385","OBJECT_NAME":"STARLINK-3226","LAUNCH_DATE":"2021-12-02","REF_FRAME":"TEME","TLE_LINE2":"2 49740  53.2173 258.2158 0002283  49.2538 171.4618 15.08820309  3607","OBJECT_ID":"2021-115S","RCS_SIZE":"LARGE","MEAN_ANOMALY":"171.4618","BSTAR":"0.00178650000000","MEAN_MOTION":"15.08820309","SEMIMAJOR_AXIS":"6917.941","REV_AT_EPOCH":"360","MEAN_MOTION_DOT":"0.00028244","INCLINATION":"53.2173","EPOCH":"2022-03-02T22:00:00.999936","CENTER_NAME":"EARTH","COUNTRY_CODE":"US","DECAY_DATE":null},{"LAUNCH_DATE":"2021-12-02","REF_FRAME":"TEME","OBJECT_NAME":"STARLINK-3244","APOAPSIS":"541.233","TLE_LINE2":"2 49741  53.2166 258.2140 0002063  58.3604 202.3521 15.08820209 15061","OBJECT_ID":"2021-115T","SEMIMAJOR_AXIS":"6917.941","MEAN_MOTION":"15.08820209","BSTAR":"0.00174460000000","MEAN_ANOMALY":"202.3521","RCS_SIZE":"LARGE","MEAN_MOTION_DOT":"0.00027572","REV_AT_EPOCH":"1506","CENTER_NAME":"EARTH","EPOCH":"2022-03-02T22:00:00.999936","INCLINATION":"53.2166","COUNTRY_CODE":"US","DECAY_DATE":null,"MEAN_ELEMENT_THEORY":"SGP4","ELEMENT_SET_NO":"999","RA_OF_ASC_NODE":"258.2140","CLASSIFICATION_TYPE":"U","GP_ID":"197637134","TIME_SYSTEM":"UTC","ARG_OF_PERICENTER":"58.3604","SITE":"AFETR","FILE":"3341629","EPHEMERIS_TYPE":"0","NORAD_CAT_ID":"49741","PERIOD":"95.439","MEAN_MOTION_DDOT":"0.0000000000000","TLE_LINE1":"1 49741U 21115T   22061.91667824  .00027572  00000-0  17446-2 0  9996","PERIAPSIS":"538.379","ECCENTRICITY":"0.00020630","OBJECT_TYPE":"PAYLOAD"},{"SEMIMAJOR_AXIS":"6917.922","MEAN_MOTION":"15.08826422","BSTAR":"0.00167340000000","MEAN_ANOMALY":"129.0866","RCS_SIZE":"LARGE","MEAN_MOTION_DOT":"0.00026435","REV_AT_EPOCH":"1505","CENTER_NAME":"EARTH","EPOCH":"2022-03-02T22:00:00.999936","INCLINATION":"53.2133","COUNTRY_CODE":"US","DECAY_DATE":null,"LAUNCH_DATE":"2021-12-02","REF_FRAME":"TEME","OBJECT_NAME":"STARLINK-3202","APOAPSIS":"541.186","TLE_LINE2":"2 49742  53.2133 258.2323 0002022  51.6777 129.0866 15.08826422 15050","OBJECT_ID":"2021-115U","FILE":"3341629","EPHEMERIS_TYPE":"0","PERIOD":"95.438","NORAD_CAT_ID":"49742","MEAN_MOTION_DDOT":"0.0000000000000","TLE_LINE1":"1 49742U 21115U   22061.91667824  .00026435  00000-0  16734-2 0  9993","ECCENTRICITY":"0.00020220","PERIAPSIS":"538.388","OBJECT_TYPE":"PAYLOAD","MEAN_ELEMENT_THEORY":"SGP4","RA_OF_ASC_NODE":"258.2323","ELEMENT_SET_NO":"999","CLASSIFICATION_TYPE":"U","GP_ID":"197636715","TIME_SYSTEM":"UTC","ARG_OF_PERICENTER":"51.6777","SITE":"AFETR"},{"MEAN_MOTION_DDOT":"0.0000000000000","PERIOD":"95.439","NORAD_CAT_ID":"49743","EPHEMERIS_TYPE":"0","FILE":"3341639","OBJECT_TYPE":"PAYLOAD","TLE_LINE1":"1 49743U 21115V   22061.91667824  .00028357  00000-0  17939-2 0  9997","ECCENTRICITY":"0.00021080","PERIAPSIS":"538.366","GP_ID":"197636752","CLASSIFICATION_TYPE":"U","ELEMENT_SET_NO":"999","RA_OF_ASC_NODE":"258.2153","MEAN_ELEMENT_THEORY":"SGP4","SITE":"AFETR","ARG_OF_PERICENTER":"58.1979","TIME_SYSTEM":"UTC","REV_AT_EPOCH":"1506","MEAN_MOTION_DOT":"0.00028357","RCS_SIZE":"LARGE","MEAN_ANOMALY":"182.5379","BSTAR":"0.00179390000000","MEAN_MOTION":"15.08814071","SEMIMAJOR_AXIS":"6917.960","COUNTRY_CODE":"US","DECAY_DATE":null,"INCLINATION":"53.2172","EPOCH":"2022-03-02T22:00:00.999936","CENTER_NAME":"EARTH","TLE_LINE2":"2 49743  53.2172 258.2153 0002108  58.1979 182.5379 15.08814071 15067","APOAPSIS":"541.283","OBJECT_NAME":"STARLINK-3239","LAUNCH_DATE":"2021-12-02","REF_FRAME":"TEME","OBJECT_ID":"2021-115V"},{"CENTER_NAME":"EARTH","EPOCH":"2022-03-02T22:00:00.999936","INCLINATION":"53.2019","DECAY_DATE":null,"COUNTRY_CODE":"US","MEAN_MOTION":"15.08815688","SEMIMAJOR_AXIS":"6917.955","BSTAR":"0.00155760000000","MEAN_ANOMALY":"88.0594","RCS_SIZE":"LARGE","MEAN_MOTION_DOT":"0.00024572","REV_AT_EPOCH":"360","OBJECT_ID":"2021-115W","REF_FRAME":"TEME","LAUNCH_DATE":"2021-12-02","OBJECT_NAME":"STARLINK-3231","APOAPSIS":"541.158","TLE_LINE2":"2 49744  53.2019 258.2986 0001934  52.6918  88.0594 15.08815688  3601","TLE_LINE1":"1 49744U 21115W   22061.91667824  .00024572  00000-0  15576-2 0  9998","ECCENTRICITY":"0.00019340","PERIAPSIS":"538.482","OBJECT_TYPE":"PAYLOAD","FILE":"3341695","EPHEMERIS_TYPE":"0","PERIOD":"95.439","NORAD_CAT_ID":"49744","MEAN_MOTION_DDOT":"0.0000000000000","TIME_SYSTEM":"UTC","ARG_OF_PERICENTER":"52.6918","SITE":"AFETR","MEAN_ELEMENT_THEORY":"SGP4","ELEMENT_SET_NO":"999","RA_OF_ASC_NODE":"258.2986","CLASSIFICATION_TYPE":"U","GP_ID":"197661102"},{"MEAN_MOTION_DDOT":"0.0000000000000","PERIOD":"95.438","NORAD_CAT_ID":"49745","FILE":"3341630","EPHEMERIS_TYPE":"0","OBJECT_TYPE":"PAYLOAD","PERIAPSIS":"538.301","TLE_LINE1":"1 49745U 21115X   22061.91667824  .00021496  00000-0  13649-2 0  9990","ECCENTRICITY":"0.00021230","CLASSIFICATION_TYPE":"U","GP_ID":"197636728","MEAN_ELEMENT_THEORY":"SGP4","ELEMENT_SET_NO":"999","RA_OF_ASC_NODE":"258.2173","SITE":"AFETR","TIME_SYSTEM":"UTC","ARG_OF_PERICENTER":"57.5009","REV_AT_EPOCH":"1505","MEAN_MOTION_DOT":"0.00021496","BSTAR":"0.00136490000000","SEMIMAJOR_AXIS":"6917.905","MEAN_MOTION":"15.08831895","RCS_SIZE":"LARGE","MEAN_ANOMALY":"143.2456","COUNTRY_CODE":"US","DECAY_DATE":null,"CENTER_NAME":"EARTH","INCLINATION":"53.2179","EPOCH":"2022-03-02T22:00:00.999936","TLE_LINE2":"2 49745  53.2179 258.2173 0002123  57.5009 143.2456 15.08831895 15054","OBJECT_NAME":"STARLINK-3241","LAUNCH_DATE":"2021-12-02","REF_FRAME":"TEME","APOAPSIS":"541.239","OBJECT_ID":"2021-115X"},{"OBJECT_NAME":"STARLINK-3233","REF_FRAME":"TEME","LAUNCH_DATE":"2021-12-02","APOAPSIS":"540.365","TLE_LINE2":"2 49746  53.2087 258.2491 0001241  49.7002  50.9015 15.08918081 15050","OBJECT_ID":"2021-115Y","BSTAR":"-0.00665910000000","SEMIMAJOR_AXIS":"6917.642","MEAN_MOTION":"15.08918081","RCS_SIZE":"LARGE","MEAN_ANOMALY":"50.9015","REV_AT_EPOCH":"1505","MEAN_MOTION_DOT":"-0.00104950","CENTER_NAME":"EARTH","INCLINATION":"53.2087","EPOCH":"2022-03-02T22:00:00.999936","COUNTRY_CODE":"US","DECAY_DATE":null,"MEAN_ELEMENT_THEORY":"SGP4","RA_OF_ASC_NODE":"258.2491","ELEMENT_SET_NO":"999","CLASSIFICATION_TYPE":"U","GP_ID":"197636759","TIME_SYSTEM":"UTC","ARG_OF_PERICENTER":"49.7002","SITE":"AFETR","FILE":"3341639","EPHEMERIS_TYPE":"0","MEAN_MOTION_DDOT":"0.0000000000000","NORAD_CAT_ID":"49746","PERIOD":"95.433","TLE_LINE1":"1 49746U 21115Y   22061.91667824 -.00104950  00000-0 -66591-2 0  9994","ECCENTRICITY":"0.00012410","PERIAPSIS":"538.648","OBJECT_TYPE":"PAYLOAD"},{"RCS_SIZE":"LARGE","MEAN_ANOMALY":"105.3137","BSTAR":"0.00164620000000","SEMIMAJOR_AXIS":"6917.901","MEAN_MOTION":"15.08833281","REV_AT_EPOCH":"1505","MEAN_MOTION_DOT":"0.00026004","INCLINATION":"53.2092","EPOCH":"2022-03-02T22:00:00.999936","CENTER_NAME":"EARTH","DECAY_DATE":null,"COUNTRY_CODE":"US","APOAPSIS":"541.199","OBJECT_NAME":"STARLINK-3247","REF_FRAME":"TEME","LAUNCH_DATE":"2021-12-02","TLE_LINE2":"2 49747  53.2092 258.2566 0002071  55.3963 105.3137 15.08833281 15059","OBJECT_ID":"2021-115Z","EPHEMERIS_TYPE":"0","FILE":"3341630","MEAN_MOTION_DDOT":"0.0000000000000","PERIOD":"95.438","NORAD_CAT_ID":"49747","TLE_LINE1":"1 49747U 21115Z   22061.91667824  .00026004  00000-0  16462-2 0  9998","PERIAPSIS":"538.333","ECCENTRICITY":"0.00020710","OBJECT_TYPE":"PAYLOAD","ELEMENT_SET_NO":"999","RA_OF_ASC_NODE":"258.2566","MEAN_ELEMENT_THEORY":"SGP4","GP_ID":"197637153","CLASSIFICATION_TYPE":"U","ARG_OF_PERICENTER":"55.3963","TIME_SYSTEM":"UTC","SITE":"AFETR"},{"APOAPSIS":"541.009","OBJECT_NAME":"STARLINK-3248","REF_FRAME":"TEME","LAUNCH_DATE":"2021-12-02","TLE_LINE2":"2 49748  53.2283 258.1250 0001779  60.2680   0.4772 15.08829228 15063","OBJECT_ID":"2021-115AA","RCS_SIZE":"LARGE","MEAN_ANOMALY":"0.4772","BSTAR":"0.00131790000000","SEMIMAJOR_AXIS":"6917.913","MEAN_MOTION":"15.08829228","REV_AT_EPOCH":"1506","MEAN_MOTION_DOT":"0.00020742","INCLINATION":"53.2283","EPOCH":"2022-03-02T22:00:00.999936","CENTER_NAME":"EARTH","COUNTRY_CODE":"US","DECAY_DATE":null,"RA_OF_ASC_NODE":"258.1250","ELEMENT_SET_NO":"999","MEAN_ELEMENT_THEORY":"SGP4","GP_ID":"197636753","CLASSIFICATION_TYPE":"U","ARG_OF_PERICENTER":"60.2680","TIME_SYSTEM":"UTC","SITE":"AFETR","EPHEMERIS_TYPE":"0","FILE":"3341639","MEAN_MOTION_DDOT":"0.0000000000000","PERIOD":"95.438","NORAD_CAT_ID":"49748","TLE_LINE1":"1 49748U 21115AA  22061.91667824  .00020742  00000-0  13179-2 0  9994","ECCENTRICITY":"0.00017790","PERIAPSIS":"538.548","OBJECT_TYPE":"PAYLOAD"}];
